GLOBALSTAR M023         
1 25621U 99004A   24292.40764740 -.00000034  00000+0  38917-3 0  9997
2 25621  52.0114  69.6540 0009345 315.3983  77.5936 12.62479853185192
GLOBALSTAR M040         
1 25622U 99004B   24292.44809562 -.00000065  00000+0  21783-3 0  9991
2 25622  51.9915  73.3236 0000818 159.5160 239.4948 12.61987277184739
GLOBALSTAR M036         
1 25623U 99004C   24292.39066243 -.00000077  00000+0  76698-4 0  9996
2 25623  51.9947 157.6351 0010275 313.0527 217.8882 11.86578357150271
GLOBALSTAR M038         
1 25624U 99004D   24292.33759895 -.00000066  00000+0  23914-3 0  9993
2 25624  51.9988  48.0593 0001163 257.2864 119.6365 12.32510853172556
GLOBALSTAR M022         
1 25649U 99012A   24292.20802598 -.00000109  00000+0 -26468-3 0  9990
2 25649  52.0036 228.7062 0003016  51.1959  97.9524 12.02489403147260
GLOBALSTAR M041         
1 25650U 99012B   24292.48974591 -.00000053  00000+0  41443-3 0  9992
2 25650  52.0000 102.0207 0002269 186.1082 173.9727 11.96659560149349
GLOBALSTAR M046         
1 25651U 99012C   24292.46112692  .00000046  00000+0  14898-2 0  9991
2 25651  52.0045 186.9771 0002709 112.0564  59.5691 12.09398775154414
GLOBALSTAR M037         
1 25652U 99012D   24292.48465876 -.00000064  00000+0  22158-3 0  9999
2 25652  51.9998 200.1280 0002538  27.0348 144.2794 12.62421382180740
